TDRS 3                  
1 19548U 88091B   26095.52139826 -.00000298  00000+0  00000+0 0  9999
2 19548  12.6573 341.4807 0042096 356.2277 354.7850  1.00267327124651
HST                     
1 20580U 90037B   26095.62622796  .00009304  00000+0  30389-3 0  9997
2 20580  28.4724 216.1877 0002248  70.2835 289.8004 15.29942321777445
TDRS 5                  
1 21639U 91054B   26095.43447367  .00000086  00000+0  00000+0 0  9992
2 21639  14.0808 354.3167 0008517 279.2819 269.0253  1.00279773126981
TDRS 6                  
1 22314U 93003B   26095.23802514 -.00000295  00000+0  00000+0 0  9999
2 22314  14.1820 357.6013 0005106 182.3645  53.3177  1.00267173121676
TDRS 7                  
1 23613U 95035B   26095.70947626 -.00000235  00000+0  00000+0 0  9999
2 23613  13.4077 348.6886 0009366  55.7053 133.9890  1.00267993112522
ISS (ZARYA)             
1 25544U 98067A   26095.81141530  .00008309  00000+0  15990-3 0  9991
2 25544  51.6329 298.2672 0006355 276.3215  83.7049 15.48791307560534
TERRA                   
1 25994U 99068A   26095.84506851  .00000598  00000+0  13084-3 0  9990
2 25994  97.9536 148.2346 0003673  95.9761  14.7792 14.61045872399047
TDRS 8                  
1 26388U 00034A   26095.83302713 -.00000192  00000+0  00000+0 0  9994
2 26388  12.5715  31.9272 0005839 330.3626 216.5911  1.00270287 94456
TIMED                   
1 26998U 01055B   26095.88039045  .00002278  00000+0  21113-3 0  9993
2 26998  74.0712  20.5894 0002557 240.0721 120.0210 14.95125137320010
AQUA                    
1 27424U 02022A   26095.84744056  .00001455  00000+0  29976-3 0  9995
2 27424  98.4221  63.7168 0001445 114.5211 266.6869 14.62044454272702
SORCE                   
1 27651U 03004A   26095.87155467  .00003910  00000+0  29295-3 0  9995
2 27651  39.9913 314.1399 0018550 254.5581 105.3164 15.03321194261015
AURA                    
1 28376U 04026A   26095.81443073  .00001472  00000+0  30852-3 0  9994
2 28376  98.3356  51.7022 0001429  93.7317 266.4046 14.61216150155641
SWIFT                   
1 28485U 04047A   26095.45740687  .00059130  00000+0  63617-3 0  9998
2 28485  20.5544  23.1109 0002954  14.1211 345.9316 15.61958526175456
THEMIS A                
1 30580U 07004A   26094.72106853 -.00000073  00000+0 -55815-2 0  9997
2 30580   7.2715 116.4659 8390797 184.5408 152.5470  0.87845402 40630
THEMIS D                
1 30797U 07004D   26095.74564905 -.00000122  00000+0  00000+0 0  9993
2 30797   6.9913  83.3525 8345441 220.4723 102.5126  0.87834715 40443
THEMIS E                
1 30798U 07004E   26095.81420226 -.00000107  00000+0  00000+0 0  9992
2 30798   4.9513 100.1578 8393515 204.7754 155.9271  0.88159961 65284
FGRST (GLAST)           
1 33053U 08029A   26095.86560539  .00004540  00000+0  17074-3 0  9991
2 33053  25.5840 346.4934 0008039 190.3046 169.7328 15.23556128984797
